KUIPER-00133            
1 65764U 25217C   26028.93110159 -.00002614  00000+0 -31446-3 0  9997
2 65764  51.9003 228.9215 0002181 202.7640 157.3226 14.79872589 18858
KUIPER-00139            
1 65765U 25217D   26028.91911661  .00011325  00000+0  86729-3 0  9994
2 65765  51.8849 215.8931 0007999 181.9980 178.0961 15.02257447 19037
KUIPER-00142            
1 65766U 25217E   26028.91620582 -.00002044  00000+0 -23916-3 0  9993
2 65766  51.9009 211.4708 0001106 140.4303 219.6740 14.79935885 19099
KUIPER-00145            
1 65767U 25217F   26028.71093624  .00002800  00000+0  39637-3 0  9998
2 65767  51.8973 214.8939 0001516  89.3018 270.8118 14.79916986 19023
KUIPER-00147            
1 65768U 25217G   26028.94468495  .00019462  00000+0  25743-2 0  9990
2 65768  51.8961 216.3607 0000523  94.6102 265.4920 14.79937051 19027
KUIPER-00148            
1 65769U 25217H   26028.69070409  .00016413  00000+0  10257-2 0  9994
2 65769  51.8738 210.0449 0009769 206.4115 153.6363 15.09534373 19093
KUIPER-00150            
1 65770U 25217J   26028.79840203  .00003909  00000+0  54036-3 0  9994
2 65770  51.8992 226.9979 0001024 107.2966 252.8108 14.80025653 18866
KUIPER-00151            
1 65771U 25217K   26028.94170330  .00004513  00000+0  61980-3 0  9997
2 65771  51.8992 218.8633 0000865 123.0049 237.0997 14.79988454 18994
