<?xml version="1.0" encoding="UTF-8"?>
<ndm xmlns:xsi="http://www.w3.org/2001/XMLSchema-instance" xsi:noNamespaceSchemaLocation="https://sanaregistry.org/r/ndmxml_unqualified/ndmxml-2.0.0-master-2.0.xsd">
<omm id="CCSDS_OMM_VERS" version="2.0">
<header><CREATION_DATE/><ORIGINATOR/></header><body><segment><metadata><OBJECT_NAME>KUIPER-00133</OBJECT_NAME><OBJECT_ID>2025-217C</OBJECT_ID><CENTER_NAME>EARTH</CENTER_NAME><REF_FRAME>TEME</REF_FRAME><TIME_SYSTEM>UTC</TIME_SYSTEM><MEAN_ELEMENT_THEORY>SGP4</MEAN_ELEMENT_THEORY></metadata><data><meanElements><EPOCH>2026-01-28T22:20:47.177376</EPOCH><MEAN_MOTION>14.79872589</MEAN_MOTION><ECCENTRICITY>.00021817</ECCENTRICITY><INCLINATION>51.9003</INCLINATION><RA_OF_ASC_NODE>228.9215</RA_OF_ASC_NODE><ARG_OF_PERICENTER>202.7640</ARG_OF_PERICENTER><MEAN_ANOMALY>157.3226</MEAN_ANOMALY></meanElements><tleParameters><EPHEMERIS_TYPE>0</EPHEMERIS_TYPE><CLASSIFICATION_TYPE>U</CLASSIFICATION_TYPE><NORAD_CAT_ID>65764</NORAD_CAT_ID><ELEMENT_SET_NO>999</ELEMENT_SET_NO><REV_AT_EPOCH>1885</REV_AT_EPOCH><BSTAR>-.31446E-3</BSTAR><MEAN_MOTION_DOT>-.2614E-4</MEAN_MOTION_DOT><MEAN_MOTION_DDOT>0</MEAN_MOTION_DDOT></tleParameters></data></segment></body></omm>
<omm id="CCSDS_OMM_VERS" version="2.0">
<header><CREATION_DATE/><ORIGINATOR/></header><body><segment><metadata><OBJECT_NAME>KUIPER-00139</OBJECT_NAME><OBJECT_ID>2025-217D</OBJECT_ID><CENTER_NAME>EARTH</CENTER_NAME><REF_FRAME>TEME</REF_FRAME><TIME_SYSTEM>UTC</TIME_SYSTEM><MEAN_ELEMENT_THEORY>SGP4</MEAN_ELEMENT_THEORY></metadata><data><meanElements><EPOCH>2026-01-28T22:03:31.675104</EPOCH><MEAN_MOTION>15.02257447</MEAN_MOTION><ECCENTRICITY>.00079999</ECCENTRICITY><INCLINATION>51.8849</INCLINATION><RA_OF_ASC_NODE>215.8931</RA_OF_ASC_NODE><ARG_OF_PERICENTER>181.9980</ARG_OF_PERICENTER><MEAN_ANOMALY>178.0961</MEAN_ANOMALY></meanElements><tleParameters><EPHEMERIS_TYPE>0</EPHEMERIS_TYPE><CLASSIFICATION_TYPE>U</CLASSIFICATION_TYPE><NORAD_CAT_ID>65765</NORAD_CAT_ID><ELEMENT_SET_NO>999</ELEMENT_SET_NO><REV_AT_EPOCH>1903</REV_AT_EPOCH><BSTAR>.86729356E-3</BSTAR><MEAN_MOTION_DOT>.11325E-3</MEAN_MOTION_DOT><MEAN_MOTION_DDOT>0</MEAN_MOTION_DDOT></tleParameters></data></segment></body></omm>
<omm id="CCSDS_OMM_VERS" version="2.0">
<header><CREATION_DATE/><ORIGINATOR/></header><body><segment><metadata><OBJECT_NAME>KUIPER-00142</OBJECT_NAME><OBJECT_ID>2025-217E</OBJECT_ID><CENTER_NAME>EARTH</CENTER_NAME><REF_FRAME>TEME</REF_FRAME><TIME_SYSTEM>UTC</TIME_SYSTEM><MEAN_ELEMENT_THEORY>SGP4</MEAN_ELEMENT_THEORY></metadata><data><meanElements><EPOCH>2026-01-28T21:59:20.182848</EPOCH><MEAN_MOTION>14.79935885</MEAN_MOTION><ECCENTRICITY>.00011062</ECCENTRICITY><INCLINATION>51.9009</INCLINATION><RA_OF_ASC_NODE>211.4708</RA_OF_ASC_NODE><ARG_OF_PERICENTER>140.4303</ARG_OF_PERICENTER><MEAN_ANOMALY>219.6740</MEAN_ANOMALY></meanElements><tleParameters><EPHEMERIS_TYPE>0</EPHEMERIS_TYPE><CLASSIFICATION_TYPE>U</CLASSIFICATION_TYPE><NORAD_CAT_ID>65766</NORAD_CAT_ID><ELEMENT_SET_NO>999</ELEMENT_SET_NO><REV_AT_EPOCH>1909</REV_AT_EPOCH><BSTAR>-.23916183E-3</BSTAR><MEAN_MOTION_DOT>-.2044E-4</MEAN_MOTION_DOT><MEAN_MOTION_DDOT>0</MEAN_MOTION_DDOT></tleParameters></data></segment></body></omm>
<omm id="CCSDS_OMM_VERS" version="2.0">
<header><CREATION_DATE/><ORIGINATOR/></header><body><segment><metadata><OBJECT_NAME>KUIPER-00145</OBJECT_NAME><OBJECT_ID>2025-217F</OBJECT_ID><CENTER_NAME>EARTH</CENTER_NAME><REF_FRAME>TEME</REF_FRAME><TIME_SYSTEM>UTC</TIME_SYSTEM><MEAN_ELEMENT_THEORY>SGP4</MEAN_ELEMENT_THEORY></metadata><data><meanElements><EPOCH>2026-01-28T17:03:44.891136</EPOCH><MEAN_MOTION>14.79916986</MEAN_MOTION><ECCENTRICITY>.00015167</ECCENTRICITY><INCLINATION>51.8973</INCLINATION><RA_OF_ASC_NODE>214.8939</RA_OF_ASC_NODE><ARG_OF_PERICENTER>89.3018</ARG_OF_PERICENTER><MEAN_ANOMALY>270.8118</MEAN_ANOMALY></meanElements><tleParameters><EPHEMERIS_TYPE>0</EPHEMERIS_TYPE><CLASSIFICATION_TYPE>U</CLASSIFICATION_TYPE><NORAD_CAT_ID>65767</NORAD_CAT_ID><ELEMENT_SET_NO>999</ELEMENT_SET_NO><REV_AT_EPOCH>1902</REV_AT_EPOCH><BSTAR>.39636837E-3</BSTAR><MEAN_MOTION_DOT>.28E-4</MEAN_MOTION_DOT><MEAN_MOTION_DDOT>0</MEAN_MOTION_DDOT></tleParameters></data></segment></body></omm>
<omm id="CCSDS_OMM_VERS" version="2.0">
<header><CREATION_DATE/><ORIGINATOR/></header><body><segment><metadata><OBJECT_NAME>KUIPER-00147</OBJECT_NAME><OBJECT_ID>2025-217G</OBJECT_ID><CENTER_NAME>EARTH</CENTER_NAME><REF_FRAME>TEME</REF_FRAME><TIME_SYSTEM>UTC</TIME_SYSTEM><MEAN_ELEMENT_THEORY>SGP4</MEAN_ELEMENT_THEORY></metadata><data><meanElements><EPOCH>2026-01-28T22:40:20.779680</EPOCH><MEAN_MOTION>14.79937051</MEAN_MOTION><ECCENTRICITY>.00005237</ECCENTRICITY><INCLINATION>51.8961</INCLINATION><RA_OF_ASC_NODE>216.3607</RA_OF_ASC_NODE><ARG_OF_PERICENTER>94.6102</ARG_OF_PERICENTER><MEAN_ANOMALY>265.4920</MEAN_ANOMALY></meanElements><tleParameters><EPHEMERIS_TYPE>0</EPHEMERIS_TYPE><CLASSIFICATION_TYPE>U</CLASSIFICATION_TYPE><NORAD_CAT_ID>65768</NORAD_CAT_ID><ELEMENT_SET_NO>999</ELEMENT_SET_NO><REV_AT_EPOCH>1902</REV_AT_EPOCH><BSTAR>.2574274E-2</BSTAR><MEAN_MOTION_DOT>.19462E-3</MEAN_MOTION_DOT><MEAN_MOTION_DDOT>0</MEAN_MOTION_DDOT></tleParameters></data></segment></body></omm>
<omm id="CCSDS_OMM_VERS" version="2.0">
<header><CREATION_DATE/><ORIGINATOR/></header><body><segment><metadata><OBJECT_NAME>KUIPER-00148</OBJECT_NAME><OBJECT_ID>2025-217H</OBJECT_ID><CENTER_NAME>EARTH</CENTER_NAME><REF_FRAME>TEME</REF_FRAME><TIME_SYSTEM>UTC</TIME_SYSTEM><MEAN_ELEMENT_THEORY>SGP4</MEAN_ELEMENT_THEORY></metadata><data><meanElements><EPOCH>2026-01-28T16:34:36.833376</EPOCH><MEAN_MOTION>15.09534373</MEAN_MOTION><ECCENTRICITY>.00097696</ECCENTRICITY><INCLINATION>51.8738</INCLINATION><RA_OF_ASC_NODE>210.0449</RA_OF_ASC_NODE><ARG_OF_PERICENTER>206.4115</ARG_OF_PERICENTER><MEAN_ANOMALY>153.6363</MEAN_ANOMALY></meanElements><tleParameters><EPHEMERIS_TYPE>0</EPHEMERIS_TYPE><CLASSIFICATION_TYPE>U</CLASSIFICATION_TYPE><NORAD_CAT_ID>65769</NORAD_CAT_ID><ELEMENT_SET_NO>999</ELEMENT_SET_NO><REV_AT_EPOCH>1909</REV_AT_EPOCH><BSTAR>.10256715E-2</BSTAR><MEAN_MOTION_DOT>.16413E-3</MEAN_MOTION_DOT><MEAN_MOTION_DDOT>0</MEAN_MOTION_DDOT></tleParameters></data></segment></body></omm>
<omm id="CCSDS_OMM_VERS" version="2.0">
<header><CREATION_DATE/><ORIGINATOR/></header><body><segment><metadata><OBJECT_NAME>KUIPER-00150</OBJECT_NAME><OBJECT_ID>2025-217J</OBJECT_ID><CENTER_NAME>EARTH</CENTER_NAME><REF_FRAME>TEME</REF_FRAME><TIME_SYSTEM>UTC</TIME_SYSTEM><MEAN_ELEMENT_THEORY>SGP4</MEAN_ELEMENT_THEORY></metadata><data><meanElements><EPOCH>2026-01-28T19:09:41.935392</EPOCH><MEAN_MOTION>14.80025653</MEAN_MOTION><ECCENTRICITY>.00010246</ECCENTRICITY><INCLINATION>51.8992</INCLINATION><RA_OF_ASC_NODE>226.9979</RA_OF_ASC_NODE><ARG_OF_PERICENTER>107.2966</ARG_OF_PERICENTER><MEAN_ANOMALY>252.8108</MEAN_ANOMALY></meanElements><tleParameters><EPHEMERIS_TYPE>0</EPHEMERIS_TYPE><CLASSIFICATION_TYPE>U</CLASSIFICATION_TYPE><NORAD_CAT_ID>65770</NORAD_CAT_ID><ELEMENT_SET_NO>999</ELEMENT_SET_NO><REV_AT_EPOCH>1886</REV_AT_EPOCH><BSTAR>.54036462E-3</BSTAR><MEAN_MOTION_DOT>.3909E-4</MEAN_MOTION_DOT><MEAN_MOTION_DDOT>0</MEAN_MOTION_DDOT></tleParameters></data></segment></body></omm>
<omm id="CCSDS_OMM_VERS" version="2.0">
<header><CREATION_DATE/><ORIGINATOR/></header><body><segment><metadata><OBJECT_NAME>KUIPER-00151</OBJECT_NAME><OBJECT_ID>2025-217K</OBJECT_ID><CENTER_NAME>EARTH</CENTER_NAME><REF_FRAME>TEME</REF_FRAME><TIME_SYSTEM>UTC</TIME_SYSTEM><MEAN_ELEMENT_THEORY>SGP4</MEAN_ELEMENT_THEORY></metadata><data><meanElements><EPOCH>2026-01-28T22:36:03.165120</EPOCH><MEAN_MOTION>14.79988454</MEAN_MOTION><ECCENTRICITY>.00008653</ECCENTRICITY><INCLINATION>51.8992</INCLINATION><RA_OF_ASC_NODE>218.8633</RA_OF_ASC_NODE><ARG_OF_PERICENTER>123.0049</ARG_OF_PERICENTER><MEAN_ANOMALY>237.0997</MEAN_ANOMALY></meanElements><tleParameters><EPHEMERIS_TYPE>0</EPHEMERIS_TYPE><CLASSIFICATION_TYPE>U</CLASSIFICATION_TYPE><NORAD_CAT_ID>65771</NORAD_CAT_ID><ELEMENT_SET_NO>999</ELEMENT_SET_NO><REV_AT_EPOCH>1899</REV_AT_EPOCH><BSTAR>.61979646E-3</BSTAR><MEAN_MOTION_DOT>.4513E-4</MEAN_MOTION_DOT><MEAN_MOTION_DDOT>0</MEAN_MOTION_DDOT></tleParameters></data></segment></body></omm>

</ndm>
